KUIPER-00053            
1 64513U 25134P   25205.93831534  .00034016  00000+0  94843-3 0  9998
2 64513  51.8752 178.9896 0002499 185.8647 174.2311 15.36446743  5625
KUIPER-00054            
1 64514U 25134Q   25205.35688138  .00017007  00000+0  48361-3 0  9990
2 64514  51.8747 181.8466 0002533 195.8293 164.2614 15.36252559  5932
KUIPER-00055            
1 64515U 25134R   25206.18939583  .00024223  00000+0  66939-3 0  9995
2 64515  51.8773 177.6797 0000663  92.9675 267.1388 15.36907319  5971
KUIPER-00056            
1 64516U 25134S   25206.14199789  .00031630  00000+0  89516-3 0  9994
2 64516  51.8727 178.1046 0004746 199.4576 160.6230 15.36011115  5651
KUIPER-00057            
1 64517U 25134T   25205.89856255  .00036173  00000+0  10518-2 0  9996
2 64517  51.8684 179.4603 0006091 213.7161 146.3438 15.35090522  6078
KUIPER-00058            
1 64518U 25134U   25206.21424289  .00014928  00000+0  43389-3 0  9999
2 64518  51.8707 177.8337 0004422 219.0999 140.9668 15.35665506  5664
KUIPER-00059            
1 64519U 25134V   25206.19112963  .00027239  00000+0  75314-3 0  9992
2 64519  51.8779 177.6875 0001206 144.0401 216.0667 15.36824868  5653
KUIPER-00060            
1 64520U 25134W   25206.19575213  .00038060  00000+0  10524-2 0  9990
2 64520  51.8755 177.7185 0002413 153.6003 206.5106 15.36652375  5664
